65183,STARLINK-34939,2025,95.64,-1.0,+,97.6,Active,0,LEO,USA,USA,Unknown,Unknown,Unknown,1 65183U 25175K   25280.59866701  .00008622  00000+0  60072-3 0  9997,2 65183  97.6026 151.7391 0002147  77.4402 282.7065 15.05669044  9571,15.05669044,0.0002147,LEO
65184,STARLINK-34947,2025,95.64,-1.0,+,97.6,Active,0,LEO,USA,USA,Unknown,Unknown,Unknown,1 65184U 25175L   25280.52943874  .00010332  00000+0  71923-3 0  9996,2 65184  97.6026 151.6774 0001830  82.1699 277.9735 15.05650405  9598,15.05650405,0.000183,LEO
65185,STARLINK-34945,2025,95.64,-1.0,+,97.6,Active,0,LEO,USA,USA,Unknown,Unknown,Unknown,1 65185U 25175M   25280.59312685  .00005742  00000+0  40171-3 0  9994,2 65185  97.6029 151.7466 0001730  89.8663 270.2762 15.05659089  9600,15.05659089,0.000173,LEO
65186,STARLINK-34965,2025,95.64,-1.0,+,97.6,Active,0,LEO,USA,USA,Unknown,Unknown,Unknown,1 65186U 25175N   25280.52113353  .00005568  00000+0  38973-3 0  9992,2 65186  97.6035 151.6881 0001984  87.8956 272.2498 15.05656660  9590,15.0565666,0.0001984,LEO
65187,STARLINK-34915,2025,95.64,-1.0,+,97.6,Active,0,LEO,USA,USA,Unknown,Unknown,Unknown,1 65187U 25175P   25280.59035983  .00007445  00000+0  51938-3 0  9994,2 65187  97.6027 151.7500 0002681  86.5973 273.5560 15.05665138  9607,15.05665138,0.0002681,LEO
65188,STARLINK-34972,2025,95.64,-1.0,+,97.6,Active,0,LEO,USA,USA,Unknown,Unknown,Unknown,1 65188U 25175Q   25280.51836505  .00006372  00000+0  44527-3 0  9990,2 65188  97.6031 151.6926 0002122  89.8390 270.3080 15.05660712  9563,15.05660712,0.0002122,LEO
65189,STARLINK-34866,2025,95.64,-1.0,+,97.6,Active,0,LEO,USA,USA,Unknown,Unknown,Unknown,1 65189U 25175R   25280.51559588  .00004612  00000+0  32358-3 0  9998,2 65189  97.6035 151.6969 0002174  87.3350 272.8125 15.05659160  9596,15.0565916,0.0002174,LEO
65190,STARLINK-34917,2025,95.64,-1.0,+,97.6,Active,0,LEO,USA,USA,Unknown,Unknown,Unknown,1 65190U 25175S   25280.66670139 -.00002080  00000+0 -13992-3 0  9994,2 65190  97.6032 151.8527 0002290  85.8942  27.7583 15.05660416  5885,15.05660416,0.000229,LEO
65191,STARLINK-34948,2025,95.69,-1.0,+,97.61,Active,0,LEO,USA,USA,Unknown,Unknown,Unknown,1 65191U 25175T   25280.63309469  .00011259  00000+0  80014-3 0  9992,2 65191  97.6024 151.8482 0003380  77.5714 282.5890 15.04849417  9619,15.04849417,0.000338,LEO
65192,STARLINK-34955,2025,95.64,-1.0,+,97.6,Active,0,LEO,USA,USA,Unknown,Unknown,Unknown,1 65192U 25175U   25280.37437955  .00009514  00000+0  66251-3 0  9994,2 65192  97.6033 151.5773 0002624  93.6189 266.5338 15.05656853  9547,15.05656853,0.0002624,LEO
65193,STARLINK-34950,2025,95.64,-1.0,+,97.6,Active,0,LEO,USA,USA,Unknown,Unknown,Unknown,1 65193U 25175V   25280.37161958  .00009020  00000+0  62821-3 0  9993,2 65193  97.6034 151.5817 0002646  89.4703 270.6827 15.05669180  9543,15.0566918,0.0002646,LEO
65194,STARLINK-34926,2025,95.64,-1.0,+,97.6,Active,0,LEO,USA,USA,Unknown,Unknown,Unknown,1 65194U 25175W   25280.36055396  .00009232  00000+0  64312-3 0  9993,2 65194  97.6022 151.5971 0002592  88.8651 271.2873 15.05651942  9542,15.05651942,0.0002592,LEO
65195,STARLINK-34928,2025,95.64,-1.0,+,97.61,Active,0,LEO,USA,USA,Unknown,Unknown,Unknown,1 65195U 25175X   25280.62913413  .00007229  00000+0  50450-3 0  9998,2 65195  97.6027 151.8546 0003126  85.4792 274.6792 15.05662711  9613,15.05662711,0.0003126,LEO
65196,STARLINK-34927,2025,95.64,-1.0,+,97.6,Active,0,LEO,USA,USA,Unknown,Unknown,Unknown,1 65196U 25175Y   25280.63467834  .00008431  00000+0  58790-3 0  9992,2 65196  97.6034 151.8463 0002039  97.7661 262.3797 15.05643733  9615,15.05643733,0.0002039,LEO
65197,STARLINK-34952,2025,95.64,-1.0,+,97.6,Active,0,LEO,USA,USA,Unknown,Unknown,Unknown,1 65197U 25175Z   25280.63190250  .00007281  00000+0  50816-3 0  9991,2 65197  97.6029 151.8508 0002474  89.3153 270.8357 15.05659601  9613,15.05659601,0.0002474,LEO
65198,STARLINK-34981,2025,94.1,-1.0,+,53.16,Active,0,LEO,USA,USA,Unknown,Unknown,Unknown,1 65198U 25176A   25280.61586943  .00033568  00000+0  11394-2 0  9993,2 65198  53.1570 146.6130 0001951  88.5954 271.5270 15.30228791  9649,15.30228791,0.0001951,LEO
