[{"OBJECT_NAME":"STARLINK-34939","OBJECT_ID":"2025-175K","EPOCH":"2025-10-07T14:22:04.829664","MEAN_MOTION":15.05669044,"ECCENTRICITY":0.00021478,"INCLINATION":97.6026,"RA_OF_ASC_NODE":151.7391,"ARG_OF_PERICENTER":77.4402,"MEAN_ANOMALY":282.7065,"EPHEMERIS_TYPE":0,"CLASSIFICATION_TYPE":"U","NORAD_CAT_ID":65183,"ELEMENT_SET_NO":999,"REV_AT_EPOCH":957,"BSTAR":0.000600719,"MEAN_MOTION_DOT":8.622e-5,"MEAN_MOTION_DDOT":0},{"OBJECT_NAME":"STARLINK-34947","OBJECT_ID":"2025-175L","EPOCH":"2025-10-07T12:42:23.507136","MEAN_MOTION":15.05650405,"ECCENTRICITY":0.00018305,"INCLINATION":97.6026,"RA_OF_ASC_NODE":151.6774,"ARG_OF_PERICENTER":82.1699,"MEAN_ANOMALY":277.9735,"EPHEMERIS_TYPE":0,"CLASSIFICATION_TYPE":"U","NORAD_CAT_ID":65184,"ELEMENT_SET_NO":999,"REV_AT_EPOCH":959,"BSTAR":0.00071923298,"MEAN_MOTION_DOT":0.00010332,"MEAN_MOTION_DDOT":0},{"OBJECT_NAME":"STARLINK-34945","OBJECT_ID":"2025-175M","EPOCH":"2025-10-07T14:14:06.159840","MEAN_MOTION":15.05659089,"ECCENTRICITY":0.00017301,"INCLINATION":97.6029,"RA_OF_ASC_NODE":151.7466,"ARG_OF_PERICENTER":89.8663,"MEAN_ANOMALY":270.2762,"EPHEMERIS_TYPE":0,"CLASSIFICATION_TYPE":"U","NORAD_CAT_ID":65185,"ELEMENT_SET_NO":999,"REV_AT_EPOCH":960,"BSTAR":0.0004017113,"MEAN_MOTION_DOT":5.742e-5,"MEAN_MOTION_DDOT":0},{"OBJECT_NAME":"STARLINK-34965","OBJECT_ID":"2025-175N","EPOCH":"2025-10-07T12:30:25.936992","MEAN_MOTION":15.0565666,"ECCENTRICITY":0.00019846,"INCLINATION":97.6035,"RA_OF_ASC_NODE":151.6881,"ARG_OF_PERICENTER":87.8956,"MEAN_ANOMALY":272.2498,"EPHEMERIS_TYPE":0,"CLASSIFICATION_TYPE":"U","NORAD_CAT_ID":65186,"ELEMENT_SET_NO":999,"REV_AT_EPOCH":959,"BSTAR":0.00038973412,"MEAN_MOTION_DOT":5.568e-5,"MEAN_MOTION_DDOT":0},{"OBJECT_NAME":"STARLINK-34915","OBJECT_ID":"2025-175P","EPOCH":"2025-10-07T14:10:07.089312","MEAN_MOTION":15.05665138,"ECCENTRICITY":0.0002681,"INCLINATION":97.6027,"RA_OF_ASC_NODE":151.75,"ARG_OF_PERICENTER":86.5973,"MEAN_ANOMALY":273.556,"EPHEMERIS_TYPE":0,"CLASSIFICATION_TYPE":"U","NORAD_CAT_ID":65187,"ELEMENT_SET_NO":999,"REV_AT_EPOCH":960,"BSTAR":0.00051937814,"MEAN_MOTION_DOT":7.445e-5,"MEAN_MOTION_DDOT":0},{"OBJECT_NAME":"STARLINK-34972","OBJECT_ID":"2025-175Q","EPOCH":"2025-10-07T12:26:26.740320","MEAN_MOTION":15.05660712,"ECCENTRICITY":0.00021224,"INCLINATION":97.6031,"RA_OF_ASC_NODE":151.6926,"ARG_OF_PERICENTER":89.839,"MEAN_ANOMALY":270.308,"EPHEMERIS_TYPE":0,"CLASSIFICATION_TYPE":"U","NORAD_CAT_ID":65188,"ELEMENT_SET_NO":999,"REV_AT_EPOCH":956,"BSTAR":0.00044527453,"MEAN_MOTION_DOT":6.372e-5,"MEAN_MOTION_DDOT":0},{"OBJECT_NAME":"STARLINK-34866","OBJECT_ID":"2025-175R","EPOCH":"2025-10-07T12:22:27.484032","MEAN_MOTION":15.0565916,"ECCENTRICITY":0.00021742,"INCLINATION":97.6035,"RA_OF_ASC_NODE":151.6969,"ARG_OF_PERICENTER":87.335,"MEAN_ANOMALY":272.8125,"EPHEMERIS_TYPE":0,"CLASSIFICATION_TYPE":"U","NORAD_CAT_ID":65189,"ELEMENT_SET_NO":999,"REV_AT_EPOCH":959,"BSTAR":0.00032357593,"MEAN_MOTION_DOT":4.612e-5,"MEAN_MOTION_DDOT":0},{"OBJECT_NAME":"STARLINK-34917","OBJECT_ID":"2025-175S","EPOCH":"2025-10-07T16:00:03.000096","MEAN_MOTION":15.05660416,"ECCENTRICITY":0.00022908,"INCLINATION":97.6032,"RA_OF_ASC_NODE":151.8527,"ARG_OF_PERICENTER":85.8942,"MEAN_ANOMALY":27.7583,"EPHEMERIS_TYPE":0,"CLASSIFICATION_TYPE":"U","NORAD_CAT_ID":65190,"ELEMENT_SET_NO":999,"REV_AT_EPOCH":588,"BSTAR":-0.0001399197,"MEAN_MOTION_DOT":-2.08e-5,"MEAN_MOTION_DDOT":0},{"OBJECT_NAME":"STARLINK-34948","OBJECT_ID":"2025-175T","EPOCH":"2025-10-07T15:11:39.381216","MEAN_MOTION":15.04849417,"ECCENTRICITY":0.00033802,"INCLINATION":97.6024,"RA_OF_ASC_NODE":151.8482,"ARG_OF_PERICENTER":77.5714,"MEAN_ANOMALY":282.589,"EPHEMERIS_TYPE":0,"CLASSIFICATION_TYPE":"U","NORAD_CAT_ID":65191,"ELEMENT_SET_NO":999,"REV_AT_EPOCH":961,"BSTAR":0.00080013687,"MEAN_MOTION_DOT":0.00011259,"MEAN_MOTION_DDOT":0},{"OBJECT_NAME":"STARLINK-34955","OBJECT_ID":"2025-175U","EPOCH":"2025-10-07T08:59:06.393120","MEAN_MOTION":15.05656853,"ECCENTRICITY":0.00026244,"INCLINATION":97.6033,"RA_OF_ASC_NODE":151.5773,"ARG_OF_PERICENTER":93.6189,"MEAN_ANOMALY":266.5338,"EPHEMERIS_TYPE":0,"CLASSIFICATION_TYPE":"U","NORAD_CAT_ID":65192,"ELEMENT_SET_NO":999,"REV_AT_EPOCH":954,"BSTAR":0.00066251406,"MEAN_MOTION_DOT":9.514e-5,"MEAN_MOTION_DDOT":0},{"OBJECT_NAME":"STARLINK-34950","OBJECT_ID":"2025-175V","EPOCH":"2025-10-07T08:55:07.931712","MEAN_MOTION":15.0566918,"ECCENTRICITY":0.00026464,"INCLINATION":97.6034,"RA_OF_ASC_NODE":151.5817,"ARG_OF_PERICENTER":89.4703,"MEAN_ANOMALY":270.6827,"EPHEMERIS_TYPE":0,"CLASSIFICATION_TYPE":"U","NORAD_CAT_ID":65193,"ELEMENT_SET_NO":999,"REV_AT_EPOCH":954,"BSTAR":0.00062820532,"MEAN_MOTION_DOT":9.02e-5,"MEAN_MOTION_DDOT":0},{"OBJECT_NAME":"STARLINK-34926","OBJECT_ID":"2025-175W","EPOCH":"2025-10-07T08:39:11.862144","MEAN_MOTION":15.05651942,"ECCENTRICITY":0.00025923,"INCLINATION":97.6022,"RA_OF_ASC_NODE":151.5971,"ARG_OF_PERICENTER":88.8651,"MEAN_ANOMALY":271.2873,"EPHEMERIS_TYPE":0,"CLASSIFICATION_TYPE":"U","NORAD_CAT_ID":65194,"ELEMENT_SET_NO":999,"REV_AT_EPOCH":954,"BSTAR":0.00064312159,"MEAN_MOTION_DOT":9.232e-5,"MEAN_MOTION_DDOT":0},{"OBJECT_NAME":"STARLINK-34928","OBJECT_ID":"2025-175X","EPOCH":"2025-10-07T15:05:57.188832","MEAN_MOTION":15.05662711,"ECCENTRICITY":0.00031268,"INCLINATION":97.6027,"RA_OF_ASC_NODE":151.8546,"ARG_OF_PERICENTER":85.4792,"MEAN_ANOMALY":274.6792,"EPHEMERIS_TYPE":0,"CLASSIFICATION_TYPE":"U","NORAD_CAT_ID":65195,"ELEMENT_SET_NO":999,"REV_AT_EPOCH":961,"BSTAR":0.00050449696,"MEAN_MOTION_DOT":7.229e-5,"MEAN_MOTION_DDOT":0},{"OBJECT_NAME":"STARLINK-34927","OBJECT_ID":"2025-175Y","EPOCH":"2025-10-07T15:13:56.208576","MEAN_MOTION":15.05643733,"ECCENTRICITY":0.00020396,"INCLINATION":97.6034,"RA_OF_ASC_NODE":151.8463,"ARG_OF_PERICENTER":97.7661,"MEAN_ANOMALY":262.3797,"EPHEMERIS_TYPE":0,"CLASSIFICATION_TYPE":"U","NORAD_CAT_ID":65196,"ELEMENT_SET_NO":999,"REV_AT_EPOCH":961,"BSTAR":0.00058789889,"MEAN_MOTION_DOT":8.431e-5,"MEAN_MOTION_DDOT":0},{"OBJECT_NAME":"STARLINK-34952","OBJECT_ID":"2025-175Z","EPOCH":"2025-10-07T15:09:56.376000","MEAN_MOTION":15.05659601,"ECCENTRICITY":0.00024742,"INCLINATION":97.6029,"RA_OF_ASC_NODE":151.8508,"ARG_OF_PERICENTER":89.3153,"MEAN_ANOMALY":270.8357,"EPHEMERIS_TYPE":0,"CLASSIFICATION_TYPE":"U","NORAD_CAT_ID":65197,"ELEMENT_SET_NO":999,"REV_AT_EPOCH":961,"BSTAR":0.00050815535,"MEAN_MOTION_DOT":7.281e-5,"MEAN_MOTION_DDOT":0},{"OBJECT_NAME":"STARLINK-34981","OBJECT_ID":"2025-176A","EPOCH":"2025-10-07T14:46:51.118752","MEAN_MOTION":15.30228791,"ECCENTRICITY":0.0001951,"INCLINATION":53.157,"RA_OF_ASC_NODE":146.613,"ARG_OF_PERICENTER":88.5954,"MEAN_ANOMALY":271.527,"EPHEMERIS_TYPE":0,"CLASSIFICATION_TYPE":"U","NORAD_CAT_ID":65198,"ELEMENT_SET_NO":999,"REV_AT_EPOCH":964,"BSTAR":0.001139353,"MEAN_MOTION_DOT":0.00033568,"MEAN_MOTION_DDOT":0}]
